CCSDS_OMM_VERS = 2.0
CREATION_DATE  = 
ORIGINATOR     = 

OBJECT_NAME    = TWILIGHT AH
OBJECT_ID      = 2026-004AH
CENTER_NAME    = EARTH
REF_FRAME      = TEME
TIME_SYSTEM    = UTC
MEAN_ELEMENT_THEORY = SGP/SGP4

EPOCH          = 2026-02-07T12:09:20.069856
MEAN_MOTION    = 15.18280044
ECCENTRICITY   = .0010776
INCLINATION    = 97.4475
RA_OF_ASC_NODE = 39.4514
ARG_OF_PERICENTER = 73.2830
MEAN_ANOMALY   = 286.9586

EPHEMERIS_TYPE = 0
CLASSIFICATION_TYPE = U
NORAD_CAT_ID   = 67394
ELEMENT_SET_NO = 999
REV_AT_EPOCH   = 408
BSTAR          = .7071E-3
MEAN_MOTION_DOT = .14464E-3
MEAN_MOTION_DDOT = 0

CCSDS_OMM_VERS = 2.0
CREATION_DATE  = 
ORIGINATOR     = 

OBJECT_NAME    = TWILIGHT AJ
OBJECT_ID      = 2026-004AJ
CENTER_NAME    = EARTH
REF_FRAME      = TEME
TIME_SYSTEM    = UTC
MEAN_ELEMENT_THEORY = SGP/SGP4

EPOCH          = 2026-02-07T12:23:06.330336
MEAN_MOTION    = 14.87806485
ECCENTRICITY   = .0005094
INCLINATION    = 97.8016
RA_OF_ASC_NODE = 39.2346
ARG_OF_PERICENTER = 180.1260
MEAN_ANOMALY   = 179.9956

EPHEMERIS_TYPE = 0
CLASSIFICATION_TYPE = U
NORAD_CAT_ID   = 67395
ELEMENT_SET_NO = 999
REV_AT_EPOCH   = 399
BSTAR          = .34268E-3
MEAN_MOTION_DOT = .3077E-4
MEAN_MOTION_DDOT = 0

CCSDS_OMM_VERS = 2.0
CREATION_DATE  = 
ORIGINATOR     = 

OBJECT_NAME    = TWILIGHT AK
OBJECT_ID      = 2026-004AK
CENTER_NAME    = EARTH
REF_FRAME      = TEME
TIME_SYSTEM    = UTC
MEAN_ELEMENT_THEORY = SGP/SGP4

EPOCH          = 2026-02-07T12:19:51.122496
MEAN_MOTION    = 15.17855566
ECCENTRICITY   = .0008813
INCLINATION    = 97.4512
RA_OF_ASC_NODE = 39.4558
ARG_OF_PERICENTER = 72.7581
MEAN_ANOMALY   = 287.4617

EPHEMERIS_TYPE = 0
CLASSIFICATION_TYPE = U
NORAD_CAT_ID   = 67396
ELEMENT_SET_NO = 999
REV_AT_EPOCH   = 408
BSTAR          = .37984E-3
MEAN_MOTION_DOT = .7634E-4
MEAN_MOTION_DDOT = 0

CCSDS_OMM_VERS = 2.0
CREATION_DATE  = 
ORIGINATOR     = 

OBJECT_NAME    = CARBSAR
OBJECT_ID      = 2026-004AL
CENTER_NAME    = EARTH
REF_FRAME      = TEME
TIME_SYSTEM    = UTC
MEAN_ELEMENT_THEORY = SGP/SGP4

EPOCH          = 2026-02-07T10:47:58.442208
MEAN_MOTION    = 15.17875944
ECCENTRICITY   = .0007926
INCLINATION    = 97.4533
RA_OF_ASC_NODE = 39.3962
ARG_OF_PERICENTER = 77.4373
MEAN_ANOMALY   = 282.7747

EPHEMERIS_TYPE = 0
CLASSIFICATION_TYPE = U
NORAD_CAT_ID   = 67397
ELEMENT_SET_NO = 999
REV_AT_EPOCH   = 407
BSTAR          = .75548E-3
MEAN_MOTION_DOT = .15271E-3
MEAN_MOTION_DDOT = 0

CCSDS_OMM_VERS = 2.0
CREATION_DATE  = 
ORIGINATOR     = 

OBJECT_NAME    = TWILIGHT AM
OBJECT_ID      = 2026-004AM
CENTER_NAME    = EARTH
REF_FRAME      = TEME
TIME_SYSTEM    = UTC
MEAN_ELEMENT_THEORY = SGP/SGP4

EPOCH          = 2026-02-07T10:43:02.435808
MEAN_MOTION    = 15.17968778
ECCENTRICITY   = .0008863
INCLINATION    = 97.4569
RA_OF_ASC_NODE = 39.4133
ARG_OF_PERICENTER = 81.7880
MEAN_ANOMALY   = 278.4359

EPHEMERIS_TYPE = 0
CLASSIFICATION_TYPE = U
NORAD_CAT_ID   = 67398
ELEMENT_SET_NO = 999
REV_AT_EPOCH   = 407
BSTAR          = .38761E-3
MEAN_MOTION_DOT = .7817E-4
MEAN_MOTION_DDOT = 0

CCSDS_OMM_VERS = 2.0
CREATION_DATE  = 
ORIGINATOR     = 

OBJECT_NAME    = TWILIGHT AN
OBJECT_ID      = 2026-004AN
CENTER_NAME    = EARTH
REF_FRAME      = TEME
TIME_SYSTEM    = UTC
MEAN_ELEMENT_THEORY = SGP/SGP4

EPOCH          = 2026-02-07T10:39:05.283360
MEAN_MOTION    = 15.18124071
ECCENTRICITY   = .0009581
INCLINATION    = 97.4558
RA_OF_ASC_NODE = 39.4129
ARG_OF_PERICENTER = 81.0889
MEAN_ANOMALY   = 279.1429

EPHEMERIS_TYPE = 0
CLASSIFICATION_TYPE = U
NORAD_CAT_ID   = 67399
ELEMENT_SET_NO = 999
REV_AT_EPOCH   = 407
BSTAR          = .38789E-3
MEAN_MOTION_DOT = .7859E-4
MEAN_MOTION_DDOT = 0

CCSDS_OMM_VERS = 2.0
CREATION_DATE  = 
ORIGINATOR     = 

OBJECT_NAME    = CONNECTA IOT-13
OBJECT_ID      = 2026-004AP
CENTER_NAME    = EARTH
REF_FRAME      = TEME
TIME_SYSTEM    = UTC
MEAN_ELEMENT_THEORY = SGP/SGP4

EPOCH          = 2026-02-07T12:06:48.894048
MEAN_MOTION    = 15.18171005
ECCENTRICITY   = .0010995
INCLINATION    = 97.4558
RA_OF_ASC_NODE = 39.4834
ARG_OF_PERICENTER = 80.8084
MEAN_ANOMALY   = 279.4393

EPHEMERIS_TYPE = 0
CLASSIFICATION_TYPE = U
NORAD_CAT_ID   = 67400
ELEMENT_SET_NO = 999
REV_AT_EPOCH   = 408
BSTAR          = .31466E-4
MEAN_MOTION_DOT = .576E-5
MEAN_MOTION_DDOT = 0

CCSDS_OMM_VERS = 2.0
CREATION_DATE  = 
ORIGINATOR     = 

OBJECT_NAME    = CONNECTA IOT-14
OBJECT_ID      = 2026-004AQ
CENTER_NAME    = EARTH
REF_FRAME      = TEME
TIME_SYSTEM    = UTC
MEAN_ELEMENT_THEORY = SGP/SGP4

EPOCH          = 2026-02-07T12:03:35.739936
MEAN_MOTION    = 15.18527156
ECCENTRICITY   = .0011539
INCLINATION    = 97.4490
RA_OF_ASC_NODE = 39.4675
ARG_OF_PERICENTER = 78.1565
MEAN_ANOMALY   = 282.0963

EPHEMERIS_TYPE = 0
CLASSIFICATION_TYPE = U
NORAD_CAT_ID   = 67401
ELEMENT_SET_NO = 999
REV_AT_EPOCH   = 408
BSTAR          = .74096E-3
MEAN_MOTION_DOT = .15273E-3
MEAN_MOTION_DDOT = 0

CCSDS_OMM_VERS = 2.0
CREATION_DATE  = 
ORIGINATOR     = 

OBJECT_NAME    = CONNECTA IOT-15
OBJECT_ID      = 2026-004AR
CENTER_NAME    = EARTH
REF_FRAME      = TEME
TIME_SYSTEM    = UTC
MEAN_ELEMENT_THEORY = SGP/SGP4

EPOCH          = 2026-02-07T11:09:31.635936
MEAN_MOTION    = 15.16678791
ECCENTRICITY   = .000433
INCLINATION    = 97.4561
RA_OF_ASC_NODE = 39.3857
ARG_OF_PERICENTER = 64.8368
MEAN_ANOMALY   = 295.3314

EPHEMERIS_TYPE = 0
CLASSIFICATION_TYPE = U
NORAD_CAT_ID   = 67402
ELEMENT_SET_NO = 999
REV_AT_EPOCH   = 406
BSTAR          = .24962E-3
MEAN_MOTION_DOT = .4822E-4
MEAN_MOTION_DDOT = 0

CCSDS_OMM_VERS = 2.0
CREATION_DATE  = 
ORIGINATOR     = 

OBJECT_NAME    = SHIJIAN-29B (SJ-29B)
OBJECT_ID      = 2025-315C
CENTER_NAME    = EARTH
REF_FRAME      = TEME
TIME_SYSTEM    = UTC
MEAN_ELEMENT_THEORY = SGP/SGP4

EPOCH          = 2026-02-07T08:25:51.697920
MEAN_MOTION    = 1.00272234
ECCENTRICITY   = .0002418
INCLINATION    = 3.0690
RA_OF_ASC_NODE = 98.5073
ARG_OF_PERICENTER = 312.8163
MEAN_ANOMALY   = 285.7091

EPHEMERIS_TYPE = 0
CLASSIFICATION_TYPE = U
NORAD_CAT_ID   = 67403
ELEMENT_SET_NO = 999
REV_AT_EPOCH   = 38
BSTAR          = 0
MEAN_MOTION_DOT = -.64E-6
MEAN_MOTION_DDOT = 0

CCSDS_OMM_VERS = 2.0
CREATION_DATE  = 
ORIGINATOR     = 

OBJECT_NAME    = STARLINK-36484
OBJECT_ID      = 2026-005A
CENTER_NAME    = EARTH
REF_FRAME      = TEME
TIME_SYSTEM    = UTC
MEAN_ELEMENT_THEORY = SGP/SGP4

EPOCH          = 2026-02-07T12:00:00.998784
MEAN_MOTION    = 15.40604932
ECCENTRICITY   = .0001813
INCLINATION    = 43.0009
RA_OF_ASC_NODE = 51.2139
ARG_OF_PERICENTER = 265.1235
MEAN_ANOMALY   = 246.9551

EPHEMERIS_TYPE = 0
CLASSIFICATION_TYPE = U
NORAD_CAT_ID   = 67404
ELEMENT_SET_NO = 999
REV_AT_EPOCH   = 528
BSTAR          = .2919E-2
MEAN_MOTION_DOT = .123229E-2
MEAN_MOTION_DDOT = 0

CCSDS_OMM_VERS = 2.0
CREATION_DATE  = 
ORIGINATOR     = 

OBJECT_NAME    = STARLINK-36452
OBJECT_ID      = 2026-005B
CENTER_NAME    = EARTH
REF_FRAME      = TEME
TIME_SYSTEM    = UTC
MEAN_ELEMENT_THEORY = SGP/SGP4

EPOCH          = 2026-02-07T09:09:23.118912
MEAN_MOTION    = 15.50582902
ECCENTRICITY   = .0001688
INCLINATION    = 43.0002
RA_OF_ASC_NODE = 51.5411
ARG_OF_PERICENTER = 275.1411
MEAN_ANOMALY   = 84.9256

EPHEMERIS_TYPE = 0
CLASSIFICATION_TYPE = U
NORAD_CAT_ID   = 67405
ELEMENT_SET_NO = 999
REV_AT_EPOCH   = 403
BSTAR          = .14107E-2
MEAN_MOTION_DOT = .83315E-3
MEAN_MOTION_DDOT = 0

