TWILIGHT AH             
1 67394U 26004AH  26038.50648229  .00014464  00000+0  70710-3 0  9992
2 67394  97.4475  39.4514 0010776  73.2830 286.9586 15.18280044  4086
TWILIGHT AJ             
1 67395U 26004AJ  26038.51604549  .00003077  00000+0  34268-3 0  9997
2 67395  97.8016  39.2346 0005094 180.1260 179.9956 14.87806485  3994
TWILIGHT AK             
1 67396U 26004AK  26038.51378614  .00007634  00000+0  37984-3 0  9990
2 67396  97.4512  39.4558 0008813  72.7581 287.4617 15.17855566  4081
CARBSAR                 
1 67397U 26004AL  26038.44998197  .00015271  00000+0  75548-3 0  9991
2 67397  97.4533  39.3962 0007926  77.4373 282.7747 15.17875944  4071
TWILIGHT AM             
1 67398U 26004AM  26038.44655597  .00007817  00000+0  38761-3 0  9999
2 67398  97.4569  39.4133 0008863  81.7880 278.4359 15.17968778  4073
TWILIGHT AN             
1 67399U 26004AN  26038.44381115  .00007859  00000+0  38789-3 0  9998
2 67399  97.4558  39.4129 0009581  81.0889 279.1429 15.18124071  4074
CONNECTA IOT-13         
1 67400U 26004AP  26038.50473257  .00000576  00000+0  31466-4 0  9992
2 67400  97.4558  39.4834 0010995  80.8084 279.4393 15.18171005  4088
CONNECTA IOT-14         
1 67401U 26004AQ  26038.50249699  .00015273  00000+0  74096-3 0  9999
2 67401  97.4490  39.4675 0011539  78.1565 282.0963 15.18527156  4081
CONNECTA IOT-15         
1 67402U 26004AR  26038.46494949  .00004822  00000+0  24962-3 0  9990
2 67402  97.4561  39.3857 0004330  64.8368 295.3314 15.16678791  4061
SHIJIAN-29B (SJ-29B)    
1 67403U 25315C   26038.35129280 -.00000064  00000+0  00000+0 0  9994
2 67403   3.0690  98.5073 0002418 312.8163 285.7091  1.00272234   385
STARLINK-36484          
1 67404U 26005A   26038.50001156  .00123229  00000+0  29190-2 0  9992
2 67404  43.0009  51.2139 0001813 265.1235 246.9551 15.40604932  5288
STARLINK-36452          
1 67405U 26005B   26038.38151758  .00083315  00000+0  14107-2 0  9996
2 67405  43.0002  51.5411 0001688 275.1411  84.9256 15.50582902  4032
